GALAXY 25 (G-25)        
1 24812U 97026A   22339.86160760  .00000006  00000+0  00000+0 0  9998
2 24812   4.1163  81.9101 0006916 201.0875 167.9406  1.00273047 93457
INTELSAT 5 (IS-5)       
1 24916U 97046A   22340.40261837 -.00000055  00000+0  00000+0 0  9999
2 24916   7.5942  59.8401 0005834 186.6439 139.7984  1.00269101 92692
GALAXY 11 (G-11)        
1 26038U 99071A   22340.46316508 -.00000151  00000+0  00000+0 0  9995
2 26038   3.4567  85.4679 0002091 214.6249 208.7777  1.00271688 84154
INTELSAT 9 (IS-9)       
1 26451U 00043A   22339.68767816 -.00000281  00000+0  00000+0 0  9993
2 26451   7.5790  60.0329 0004166 190.5055  21.4988  1.00272614 31212
INTELSAT 1R (IS-1R)     
1 26608U 00072A   22339.78068442 -.00000128  00000+0  00000+0 0  9999
2 26608   4.8272  78.9896 0000461 284.8184 148.9117  1.00271690 80724
INTELSAT 10 (IS-10)     
1 26766U 01019A   22339.67067101  .00000043  00000+0  00000+0 0  9990
2 26766   5.9844  71.8872 0004325 184.3456 237.4642  1.00273793 79003
INTELSAT 901 (IS-901)   
1 26824U 01024A   22340.16229882 -.00000189  00000+0  00000+0 0  9995
2 26824   0.0457  97.6904 0000881 206.2304 161.9391  1.00271640 78667
INTELSAT 902 (IS-902)   
1 26900U 01039A   22339.74793608 -.00000271  00000+0  00000+0 0  9992
2 26900   2.8356  87.0842 0003528 183.1411  23.4649  1.00270733 77767
INTELSAT 904 (IS-904)   
1 27380U 02007A   22340.25952094 -.00000203  00000+0  00000+0 0  9990
2 27380   3.6673  84.0942 0003222 176.5022 238.3617  1.00271606 76169
DIRECTV 5 (TEMPO 1)     
1 27426U 02023A   22339.63876881 -.00000044  00000+0  00000+0 0  9991
2 27426   1.5626  91.1436 0003490 168.8786 294.2441  1.00272129 75199
INTELSAT 905 (IS-905)   
1 27438U 02027A   22339.87933850 -.00000173  00000+0  00000+0 0  9997
2 27438   3.4888  84.8161 0002907 168.0997 113.8138  1.00271253 38437
GALAXY 3C (G-3C)        
1 27445U 02030A   22340.46253066 -.00000139  00000+0  00000+0 0  9992
2 27445   0.4164  91.7756 0001520 214.1036 201.0133  1.00272400 75029
INTELSAT 906 (IS-906)   
1 27513U 02041A   22340.37688566  .00000026  00000+0  00000+0 0  9991
2 27513   2.5068  88.4902 0004457 165.9596  20.5317  1.00274270 74049
GALAXY 12 (G-12)        
1 27715U 03013B   22339.70626431  .00000068  00000+0  00000+0 0  9999
2 27715   3.6989  83.7574 0002044 176.8868 299.1015  1.00272809 39162
GALAXY 23 (G-23)        
1 27854U 03034A   22340.59066424  .00000027  00000+0  00000+0 0  9990
2 27854   0.0029  96.9782 0002712 150.8435 279.1982  1.00271834 75622
GALAXY 13 (HORIZONS-1)  
1 27954U 03044A   22340.36934153  .00000061  00000+0  00000+0 0  9998
2 27954   0.0108  94.0306 0001139 264.6344  82.4286  1.00271566 70233
INTELSAT 10-02          
1 28358U 04022A   22340.09563161  .00000002  00000+0  00000+0 0  9996
2 28358   0.0408  97.8080 0001588 204.7850 165.7047  1.00271378 67709
XM-3 (RHYTHM)           
1 28626U 05008A   22340.46836750 -.00000191  00000+0  00000+0 0  9997
2 28626   0.0179 127.3139 0002272  63.2058 328.2182  1.00267581 65148
DIRECTV 8               
1 28659U 05019A   22340.59405104  .00000015  00000+0  00000+0 0  9998
2 28659   0.0447 110.3866 0002998 143.3523 276.4334  1.00269920 64267
GALAXY 28 (G-28)        
1 28702U 05022A   22340.53785333 -.00000172  00000+0  00000+0 0  9995
2 28702   0.0225  39.7909 0002392 231.4855 268.6627  1.00274997 63905
GALAXY 14 (G-14)        
1 28790U 05030A   22340.27618706  .00000168  00000+0  00000+0 0  9995
2 28790   1.6968  90.3313 0001931 155.5348 321.5057  1.00270360 63373
GALAXY 15 (G-15)        
1 28884U 05041A   22339.66125406  .00000044  00000+0  00000+0 0  9995
2 28884   0.2478  92.3907 0004258 178.0874 277.0674  1.00308324 62672
SPACEWAY 2              
1 28903U 05046B   22340.56851674  .00000116  00000+0  00000+0 0  9996
2 28903   2.2965  86.2886 0001057 173.9205 240.9145  1.00271124 62579
GALAXY 16 (G-16)        
1 29236U 06023A   22340.52061812 -.00000114  00000+0  00000+0 0  9994
2 29236   0.0170  31.5537 0003083 230.5374 261.6219  1.00272589 60348
DIRECTV 9S              
1 29494U 06043A   22339.66604814 -.00000101  00000+0  00000+0 0  9996
2 29494   0.0281  83.5276 0003161 173.6446 315.8571  1.00271652 38458
XM-4 (BLUES)            
1 29520U 06049A   22339.59744931 -.00000194  00000+0  00000+0 0  9991
2 29520   0.0202 289.4391 0001645  34.4426 240.4639  1.00272691 59065
GALAXY 17 (G-17)        
1 31307U 07016B   22340.18875964 -.00000161  00000+0  00000+0 0  9994
2 31307   0.0213 321.5031 0003195 309.1368 141.2955  1.00270974 57150
DIRECTV 10              
1 31862U 07032A   22340.43707986 -.00000092  00000+0  00000+0 0  9997
2 31862   0.0347 143.0598 0001025  89.0946 257.6171  1.00284631 56487
SPACEWAY 3              
1 32018U 07036A   22340.53392939 -.00000138  00000+0  00000+0 0  9995
2 32018   0.6689  91.1384 0000269 346.7653  94.6619  1.00271701 56209
INTELSAT 11 (IS-11)     
1 32253U 07044B   22340.48318956 -.00000255  00000+0  00000+0 0  9996
2 32253   0.2255  94.0857 0003311 183.4700 288.6441  1.00271151 55602
HORIZONS-2              
1 32388U 07063B   22340.19869949 -.00000240  00000+0  00000+0 0  9991
2 32388   0.0180 328.4008 0002320 296.4501 167.8550  1.00270770 54953
DIRECTV 11              
1 32729U 08013A   22340.45966035 -.00000114  00000+0  00000+0 0  9999
2 32729   0.0310 137.5554 0001330 125.2504 238.7442  1.00281233 54015
GALAXY 18 (G-18)        
1 32951U 08024A   22339.73337953  .00000037  00000+0  00000+0 0  9991
2 32951   0.0032  21.3681 0003278 233.8309 320.3240  1.00272325 32928
INTELSAT 25 (IS-25)     
1 33153U 08034A   22340.33799123 -.00000210  00000+0  00000+0 0  9990
2 33153   0.0117 304.8083 0003214 314.7105 265.7730  1.00271877 52711
GALAXY 19 (G-19)        
1 33376U 08045A   22340.18566184 -.00000126  00000+0  00000+0 0  9997
2 33376   0.0164  22.8785 0002952 238.0313 143.8953  1.00272444 51918
FM-5                    
1 35493U 09034A   22340.19181122 -.00000187  00000+0  00000+0 0  9991
2 35493   0.0158 328.7067 0000336 240.9113 208.2726  1.00271511 49058
INTELSAT 14 (IS-14)     
1 36097U 09064A   22340.40049362 -.00000260  00000+0  00000+0 0  9990
2 36097   0.0172 299.1402 0002539 312.0900 283.1278  1.00271398 47775
INTELSAT 15 (IS-15)     
1 36106U 09067A   22339.82327932 -.00000173  00000+0  00000+0 0  9993
2 36106   0.0119 346.3815 0002642 278.3020 191.4536  1.00271489 47670
DIRECTV 12              
1 36131U 09075A   22340.43707887 -.00000091  00000+0  00000+0 0  9999
2 36131   0.0325 153.8728 0000641 101.4876 234.4952  1.00279471 47469
INTELSAT 16 (IS-16)     
1 36397U 10006A   22340.54729671 -.00000231  00000+0  00000+0 0  9992
2 36397   0.0103 339.4042 0002196 274.1149 302.6239  1.00271405 46796
XM-5                    
1 37185U 10053A   22340.42633156 -.00000010  00000+0  00000+0 0  9994
2 37185   0.0179 346.0445 0000554 178.8434 308.6035  1.00270728 44525
INTELSAT 17 (IS-17)     
1 37238U 10065B   22340.12974661  .00000011  00000+0  00000+0 0  9992
2 37238   0.0269 273.5374 0002485 345.1026 288.9872  1.00272598 43996
INTELSAT NEW DAWN       
1 37392U 11016A   22340.30882455  .00000169  00000+0  00000+0 0  9993
2 37392   0.0162 269.8326 0001579 323.2138 346.0074  1.00273586 42591
INTELSAT 18 (IS-18)     
1 37834U 11056A   22340.56955589  .00000067  00000+0  00000+0 0  9992
2 37834   0.0232 352.4828 0002306 260.2424 207.6602  1.00273288 40926
INTELSAT 22 (IS-22)     
1 38098U 12011A   22339.86160760 -.00000047  00000+0  00000+0 0  9996
2 38098   0.0039   3.6909 0002463 216.5930 236.6371  1.00272210 38891
INTELSAT 19 (IS-19)     
1 38356U 12030A   22339.79099557 -.00000044  00000+0  00000+0 0  9998
2 38356   0.0149 331.3891 0003431 286.6179 267.3331  1.00272022 37516
INTELSAT 20 (IS-20)     
1 38740U 12043A   22339.86160760 -.00000012  00000+0  00000+0 0  9997
2 38740   0.0061 112.0334 0003328  81.4595 259.8406  1.00270962 37824
INTELSAT 21 (IS-21)     
1 38749U 12045A   22340.41346385 -.00000271  00000+0  00000+0 0  9997
2 38749   0.0118 312.5002 0002477 297.6149 275.9262  1.00269527 37717
INTELSAT 23 (IS-23)     
1 38867U 12057A   22339.74732591 -.00000272  00000+0  00000+0 0  9994
2 38867   0.0143 304.5987 0000563 312.5511  33.4225  1.00268655 37013
FM-6                    
1 39360U 13058A   22340.21044983 -.00000004  00000+0  00000+0 0  9993
2 39360   0.0191 312.5526 0000416 197.9101 244.1391  1.00270406 33423
INTELSAT 30 (IS-30)     
1 40271U 14062A   22340.02609350 -.00000138  00000+0  00000+0 0  9994
2 40271   0.0193 331.1065 0002136 143.7182 234.3207  1.00271586 29839
DIRECTV 14              
1 40333U 14078B   22340.53126282 -.00000112  00000+0  00000+0 0  9996
2 40333   0.0353  72.7840 0000274 196.9607 257.5748  1.00272012 29324
DIRECTV 15              
1 40663U 15026A   22340.43707880 -.00000091  00000+0  00000+0 0  9990
2 40663   0.0174   1.3029 0000726 241.4635 246.9464  1.00283076 27616
SKY MEXICO-1            
1 40664U 15026B   22340.02514546 -.00000222  00000+0  00000+0 0  9997
2 40664   0.0203 311.1358 0002369 308.5950 105.3603  1.00271853 27609
INTELSAT 34 (IS-34)     
1 40874U 15039A   22339.72484400 -.00000273  00000+0  00000+0 0  9990
2 40874   0.0155 317.3729 0001047 228.1102  94.4885  1.00271632 26699
INTELSAT 31 (IS-31)     
1 41581U 16035A   22340.02609375 -.00000138  00000+0  00000+0 0  9998
2 41581   0.0188 269.8580 0002418 296.5185 142.7648  1.00271582 23763
INTELSAT 36 (IS-36)     
1 41747U 16053A   22340.13026959 -.00000012  00000+0  00000+0 0  9996
2 41747   0.0116 341.1831 0000934  25.0290 184.0982  1.00271554 23011
INTELSAT 33E (IS-33E)   
1 41748U 16053B   22340.12852630  .00000062  00000+0  00000+0 0  9993
2 41748   0.0108 317.1853 0001984 292.1163 291.8575  1.00271659 23293
INTELSAT 32E (IS-32E)   
1 41945U 17007B   22340.10546130 -.00000256  00000+0  00000+0 0  9991
2 41945   0.0191   5.1560 0000259 189.6254 234.8914  1.00270368 21320
INTELSAT 35E (IS-35E)   
1 42818U 17041A   22339.89046799 -.00000225  00000+0  00000+0 0  9995
2 42818   0.0139 305.4334 0001854 310.3453 104.9719  1.00271808 19881
INTELSAT 37E (IS-37E)   
1 42950U 17059A   22340.38222339 -.00000127  00000+0  00000+0 0  9994
2 42950   0.0188   6.2360 0003028 248.0208 300.5020  1.00272611 19126
AZERSPACE 2 (IS-38)     
1 43632U 18074A   22340.11299421  .00000149  00000+0  00000+0 0  9990
2 43632   0.0226 349.5980 0001698 275.0754 255.9978  1.00271031 15514
HORIZONS-3E             
1 43633U 18074B   22339.59288491 -.00000020  00000+0  00000+0 0  9995
2 43633   0.0193  72.5861 0001710 219.9724 164.2300  1.00267171 15395
AT&T T-16               
1 44333U 19034A   22339.66604814 -.00000103  00000+0  00000+0 0  9991
2 44333   0.0460 113.3943 0000334 157.6486 302.3266  1.00269141 12706
INTELSAT 39 (IS-39)     
1 44476U 19049B   22339.56134664  .00000045  00000+0  00000+0 0  9999
2 44476   0.0183 325.2845 0000795 184.0456 189.0455  1.00271290 12206
GALAXY 30 (G-30)        
1 46114U 20056C   22339.30257024  .00000048  00000+0  00000+0 0  9991
2 46114   0.0181 338.8814 0002214 269.5205 169.6235  1.00273761  8356
GALAXY 33               
1 54026U 22128A   22340.59947608  .00000093  00000+0  00000+0 0  9991
2 54026   0.0504 100.9197 0002111 153.1499 264.1171  1.00269913   825
GALAXY 34               
1 54027U 22128B   22340.16122760  .00000065  00000+0  00000+0 0  9998
2 54027   0.0179 316.6136 0006365 345.5556  57.7843  1.00503926   859
2022-153A               
1 54243U 22153A   22340.60818767  .00000145  00000+0  00000+0 0  9993
2 54243   0.0521 128.8964 0001953 179.7789 196.6923  1.00274172   237
2022-153B               
1 54244U 22153B   22340.60829385  .00000145  00000+0  00000+0 0  9992
2 54244   0.0108 337.1901 0002405 304.0216 224.0965  1.00270995   248
